start=new Date('2023-03-03T00:00:00.000Z').valueOf();
sats=[{"ELEMENT_SET_NO":"999","MEAN_ELEMENT_THEORY":"SGP4","NORAD_CAT_ID":"52877","FILE":"3849487","PERIAPSIS":"538.890","LAUNCH_DATE":"2022-06-17","TLE_LINE2":"2 52877  53.2166 285.0535 0001103  93.4858 266.6260 15.08870218 39576","REV_AT_EPOCH":"3957","OBJECT_NAME":"STARLINK-4214","RCS_SIZE":"LARGE","INCLINATION":"53.2166","TIME_SYSTEM":"UTC","MEAN_MOTION_DDOT":"0.0000000000000","ECCENTRICITY":"0.00011030","CENTER_NAME":"EARTH","ARG_OF_PERICENTER":"93.4858","CLASSIFICATION_TYPE":"U","OBJECT_TYPE":"PAYLOAD","BSTAR":"0.00113110000000","PERIOD":"95.436","SITE":"AFETR","TLE_LINE1":"1 52877U 22062AZ  23061.82900225  .00017774  00000-0  11311-2 0  9996","REF_FRAME":"TEME","MEAN_MOTION_DOT":"0.00017774","EPHEMERIS_TYPE":"0","SEMIMAJOR_AXIS":"6917.788","COUNTRY_CODE":"US","APOAPSIS":"540.416","EPOCH":"2023-03-02T19:53:45.794400","RA_OF_ASC_NODE":"285.0535","OBJECT_ID":"2022-062AZ","MEAN_ANOMALY":"266.6260","MEAN_MOTION":"15.08870218","GP_ID":"227361826","DECAY_DATE":null},{"CLASSIFICATION_TYPE":"U","CENTER_NAME":"EARTH","ARG_OF_PERICENTER":"64.7577","ECCENTRICITY":"0.00008030","MEAN_MOTION_DDOT":"0.0000000000000","TIME_SYSTEM":"UTC","RCS_SIZE":"LARGE","INCLINATION":"53.2163","OBJECT_NAME":"STARLINK-4171","REV_AT_EPOCH":"3945","TLE_LINE2":"2 52878  53.2163 288.5212 0000803  64.7577 295.3499 15.08845079 39456","LAUNCH_DATE":"2022-06-17","PERIAPSIS":"539.174","FILE":"3849487","NORAD_CAT_ID":"52878","MEAN_ELEMENT_THEORY":"SGP4","ELEMENT_SET_NO":"999","DECAY_DATE":null,"GP_ID":"227362076","MEAN_MOTION":"15.08845079","MEAN_ANOMALY":"295.3499","OBJECT_ID":"2022-062BA","RA_OF_ASC_NODE":"288.5212","EPOCH":"2023-03-02T01:20:56.844672","APOAPSIS":"540.285","SEMIMAJOR_AXIS":"6917.865","COUNTRY_CODE":"US","EPHEMERIS_TYPE":"0","MEAN_MOTION_DOT":"0.00022375","REF_FRAME":"TEME","SITE":"AFETR","TLE_LINE1":"1 52878U 22062BA  23061.05621348  .00022375  00000-0  14193-2 0  9992","PERIOD":"95.437","BSTAR":"0.00141930000000","OBJECT_TYPE":"PAYLOAD"},{"EPHEMERIS_TYPE":"0","MEAN_MOTION_DOT":"0.00025021","REF_FRAME":"TEME","PERIOD":"95.435","BSTAR":"0.00158280000000","SITE":"AFETR","TLE_LINE1":"1 52879U 22062BB  23061.81796618  .00025021  00000-0  15828-2 0  9997","OBJECT_TYPE":"PAYLOAD","MEAN_MOTION":"15.08881373","DECAY_DATE":null,"GP_ID":"227362334","OBJECT_ID":"2022-062BB","MEAN_ANOMALY":"278.3268","EPOCH":"2023-03-02T19:37:52.277952","RA_OF_ASC_NODE":"285.1064","COUNTRY_CODE":"US","SEMIMAJOR_AXIS":"6917.754","APOAPSIS":"540.113","FILE":"3849487","NORAD_CAT_ID":"52879","MEAN_ELEMENT_THEORY":"SGP4","ELEMENT_SET_NO":"999","ARG_OF_PERICENTER":"81.7805","CENTER_NAME":"EARTH","CLASSIFICATION_TYPE":"U","MEAN_MOTION_DDOT":"0.0000000000000","ECCENTRICITY":"0.00007140","REV_AT_EPOCH":"3957","INCLINATION":"53.2151","RCS_SIZE":"LARGE","TIME_SYSTEM":"UTC","OBJECT_NAME":"STARLINK-4139","LAUNCH_DATE":"2022-06-17","TLE_LINE2":"2 52879  53.2151 285.1064 0000714  81.7805 278.3268 15.08881373 39571","PERIAPSIS":"539.125"},{"OBJECT_TYPE":"PAYLOAD","BSTAR":"0.00066714000000","PERIOD":"95.437","TLE_LINE1":"1 52880U 22062BC  23061.82163949  .00010350  00000-0  66714-3 0  9995","SITE":"AFETR","MEAN_MOTION_DOT":"0.00010350","REF_FRAME":"TEME","EPHEMERIS_TYPE":"0","EPOCH":"2023-03-02T19:43:09.651936","RA_OF_ASC_NODE":"285.0911","COUNTRY_CODE":"US","SEMIMAJOR_AXIS":"6917.829","APOAPSIS":"540.520","MEAN_MOTION":"15.08856672","GP_ID":"227363077","DECAY_DATE":null,"OBJECT_ID":"2022-062BC","MEAN_ANOMALY":"277.1768","ELEMENT_SET_NO":"999","NORAD_CAT_ID":"52880","MEAN_ELEMENT_THEORY":"SGP4","FILE":"3849487","TLE_LINE2":"2 52880  53.2145 285.0911 0001194  82.9360 277.1768 15.08856672 39574","LAUNCH_DATE":"2022-06-17","PERIAPSIS":"538.868","MEAN_MOTION_DDOT":"0.0000000000000","ECCENTRICITY":"0.00011940","REV_AT_EPOCH":"3957","RCS_SIZE":"LARGE","INCLINATION":"53.2145","OBJECT_NAME":"STARLINK-4186","TIME_SYSTEM":"UTC","CENTER_NAME":"EARTH","ARG_OF_PERICENTER":"82.9360","CLASSIFICATION_TYPE":"U"},{"NORAD_CAT_ID":"52881","MEAN_ELEMENT_THEORY":"SGP4","ELEMENT_SET_NO":"999","FILE":"3849487","ECCENTRICITY":"0.00016250","MEAN_MOTION_DDOT":"0.0000000000000","INCLINATION":"53.2145","RCS_SIZE":"LARGE","OBJECT_NAME":"STARLINK-4192","TIME_SYSTEM":"UTC","REV_AT_EPOCH":"3957","LAUNCH_DATE":"2022-06-17","TLE_LINE2":"2 52881  53.2145 285.0731 0001625  57.5613 302.5536 15.08866241 39572","PERIAPSIS":"538.541","CLASSIFICATION_TYPE":"U","ARG_OF_PERICENTER":"57.5613","CENTER_NAME":"EARTH","SITE":"AFETR","TLE_LINE1":"1 52881U 22062BD  23061.82532225  .00015709  00000-0  10022-2 0  9996","BSTAR":"0.00100220000000","PERIOD":"95.436","OBJECT_TYPE":"PAYLOAD","EPHEMERIS_TYPE":"0","MEAN_MOTION_DOT":"0.00015709","REF_FRAME":"TEME","DECAY_DATE":null,"GP_ID":"227361333","MEAN_MOTION":"15.08866241","MEAN_ANOMALY":"302.5536","OBJECT_ID":"2022-062BD","RA_OF_ASC_NODE":"285.0731","EPOCH":"2023-03-02T19:48:27.842400","APOAPSIS":"540.789","SEMIMAJOR_AXIS":"6917.800","COUNTRY_CODE":"US"},{"COUNTRY_CODE":"US","SEMIMAJOR_AXIS":"6917.807","APOAPSIS":"540.468","EPOCH":"2023-03-02T19:32:33.670176","RA_OF_ASC_NODE":"285.1241","OBJECT_ID":"2022-062BE","MEAN_ANOMALY":"264.6342","MEAN_MOTION":"15.08863914","GP_ID":"227361583","DECAY_DATE":null,"REF_FRAME":"TEME","MEAN_MOTION_DOT":"0.00010994","EPHEMERIS_TYPE":"0","OBJECT_TYPE":"PAYLOAD","PERIOD":"95.436","BSTAR":"0.00070730000000","SITE":"AFETR","TLE_LINE1":"1 52882U 22062BE  23061.81427859  .00010994  00000-0  70730-3 0  9996","ARG_OF_PERICENTER":"95.4781","CENTER_NAME":"EARTH","CLASSIFICATION_TYPE":"U","PERIAPSIS":"538.877","LAUNCH_DATE":"2022-06-17","TLE_LINE2":"2 52882  53.2150 285.1241 0001150  95.4781 264.6342 15.08863914 39573","REV_AT_EPOCH":"3957","TIME_SYSTEM":"UTC","RCS_SIZE":"LARGE","INCLINATION":"53.2150","OBJECT_NAME":"STARLINK-4181","MEAN_MOTION_DDOT":"0.0000000000000","ECCENTRICITY":"0.00011500","FILE":"3849487","ELEMENT_SET_NO":"999","MEAN_ELEMENT_THEORY":"SGP4","NORAD_CAT_ID":"52882"},{"MEAN_MOTION_DDOT":"0.0000000000000","ECCENTRICITY":"0.00012080","REV_AT_EPOCH":"3625","RCS_SIZE":"LARGE","OBJECT_NAME":"STARLINK-4260","INCLINATION":"53.2181","TIME_SYSTEM":"UTC","LAUNCH_DATE":"2022-07-07","TLE_LINE2":"2 52986  53.2181   7.7968 0001208  80.3185 279.7943 15.08832047 36250","PERIAPSIS":"538.934","CENTER_NAME":"EARTH","ARG_OF_PERICENTER":"80.3185","CLASSIFICATION_TYPE":"U","NORAD_CAT_ID":"52986","MEAN_ELEMENT_THEORY":"SGP4","ELEMENT_SET_NO":"999","FILE":"3849487","MEAN_MOTION":"15.08832047","DECAY_DATE":null,"GP_ID":"227361835","OBJECT_ID":"2022-076A","MEAN_ANOMALY":"279.7943","EPOCH":"2023-03-02T05:14:05.389152","RA_OF_ASC_NODE":"7.7968","COUNTRY_CODE":"US","SEMIMAJOR_AXIS":"6917.905","APOAPSIS":"540.605","BSTAR":"0.00023456000000","PERIOD":"95.438","TLE_LINE1":"1 52986U 22076A   23061.21811793  .00003446  00000-0  23456-3 0  9991","SITE":"AFETR","OBJECT_TYPE":"PAYLOAD","EPHEMERIS_TYPE":"0","MEAN_MOTION_DOT":"0.00003446","REF_FRAME":"TEME"},{"FILE":"3849487","ELEMENT_SET_NO":"999","MEAN_ELEMENT_THEORY":"SGP4","NORAD_CAT_ID":"52987","CENTER_NAME":"EARTH","ARG_OF_PERICENTER":"134.6479","CLASSIFICATION_TYPE":"U","PERIAPSIS":"539.198","TLE_LINE2":"2 52987  53.2166  14.9393 0000676 134.6479 225.4568 15.08865986 36218","LAUNCH_DATE":"2022-07-07","REV_AT_EPOCH":"3621","INCLINATION":"53.2166","RCS_SIZE":"LARGE","TIME_SYSTEM":"UTC","OBJECT_NAME":"STARLINK-4259","MEAN_MOTION_DDOT":"0.0000000000000","ECCENTRICITY":"0.00006760","REF_FRAME":"TEME","MEAN_MOTION_DOT":"0.00005167","EPHEMERIS_TYPE":"0","OBJECT_TYPE":"PAYLOAD","PERIOD":"95.436","BSTAR":"0.00034223000000","SITE":"AFETR","TLE_LINE1":"1 52987U 22076B   23061.85383834  .00005167  00000-0  34223-3 0  9998","COUNTRY_CODE":"US","SEMIMAJOR_AXIS":"6917.801","APOAPSIS":"540.134","EPOCH":"2023-03-02T20:29:31.632576","RA_OF_ASC_NODE":"14.9393","OBJECT_ID":"2022-076B","MEAN_ANOMALY":"225.4568","MEAN_MOTION":"15.08865986","GP_ID":"227362085","DECAY_DATE":null},{"MEAN_MOTION_DOT":"0.00038557","REF_FRAME":"TEME","EPHEMERIS_TYPE":"0","OBJECT_TYPE":"PAYLOAD","TLE_LINE1":"1 52988U 22076C   23061.28069009  .00038557  00000-0  24273-2 0  9993","SITE":"AFETR","PERIOD":"95.437","BSTAR":"0.00242730000000","RA_OF_ASC_NODE":"7.5223","EPOCH":"2023-03-02T06:44:11.623776","APOAPSIS":"540.815","SEMIMAJOR_AXIS":"6917.873","COUNTRY_CODE":"US","DECAY_DATE":null,"GP_ID":"227362343","MEAN_MOTION":"15.08842533","MEAN_ANOMALY":"286.2080","OBJECT_ID":"2022-076C","FILE":"3849487","ELEMENT_SET_NO":"999","NORAD_CAT_ID":"52988","MEAN_ELEMENT_THEORY":"SGP4","CLASSIFICATION_TYPE":"U","CENTER_NAME":"EARTH","ARG_OF_PERICENTER":"73.9084","LAUNCH_DATE":"2022-07-07","TLE_LINE2":"2 52988  53.2160   7.5223 0001557  73.9084 286.2080 15.08842533 36261","PERIAPSIS":"538.661","ECCENTRICITY":"0.00015570","MEAN_MOTION_DDOT":"0.0000000000000","OBJECT_NAME":"STARLINK-4291","RCS_SIZE":"LARGE","INCLINATION":"53.2160","TIME_SYSTEM":"UTC","REV_AT_EPOCH":"3626"},{"ELEMENT_SET_NO":"999","NORAD_CAT_ID":"52989","MEAN_ELEMENT_THEORY":"SGP4","FILE":"3849487","TLE_LINE2":"2 52989  53.2161  17.6431 0001942  95.9549 264.1664 15.08851075 36123","LAUNCH_DATE":"2022-07-07","PERIAPSIS":"538.368","MEAN_MOTION_DDOT":"0.0000000000000","ECCENTRICITY":"0.00019420","REV_AT_EPOCH":"3612","RCS_SIZE":"LARGE","INCLINATION":"53.2161","TIME_SYSTEM":"UTC","OBJECT_NAME":"STARLINK-4293","CENTER_NAME":"EARTH","ARG_OF_PERICENTER":"95.9549","CLASSIFICATION_TYPE":"U","OBJECT_TYPE":"PAYLOAD","PERIOD":"95.437","BSTAR":"0.00215700000000","TLE_LINE1":"1 52989U 22076D   23061.25400886  .00034218  00000-0  21570-2 0  9990","SITE":"AFETR","MEAN_MOTION_DOT":"0.00034218","REF_FRAME":"TEME","EPHEMERIS_TYPE":"0","EPOCH":"2023-03-02T06:05:46.365504","RA_OF_ASC_NODE":"17.6431","SEMIMAJOR_AXIS":"6917.847","COUNTRY_CODE":"US","APOAPSIS":"541.055","MEAN_MOTION":"15.08851075","GP_ID":"227363086","DECAY_DATE":null,"OBJECT_ID":"2022-076D","MEAN_ANOMALY":"264.1664"}];
